CTC1_L_00315001-01
1 21189U 25203SR  26037.47804398  .00000000  00000+0  00000-0 0  9993
2 21189  75.0000   0.0000 0000000   0.0000   0.0000 14.60983372    19
CTC1_L_00315001-02
1 21190U 26345TA  26037.47804398  .00000000  00000+0  00000-0 0  9993
2 21190  75.0000   0.0000 0000000   0.0000  90.0000 14.60983372    10
CTC1_L_00315001-03
1 21191U 22756RK  26037.47804398  .00000000  00000+0  00000-0 0  9996
2 21191  75.0000   0.0000 0000000   0.0000 180.0000 14.60983372    11
CTC1_L_00315001-04
1 21192U 25750SL  26037.47804398  .00000000  00000+0  00000-0 0  9994
2 21192  75.0000   0.0000 0000000   0.0000 270.0000 14.60983372    12
CTC1_L_00315002-01
1 21193U 26757FV  26037.47804398  .00000000  00000+0  00000-0 0  9993
2 21193  75.0000  12.0000 0000000   0.0000  12.0000 14.60983372    10
CTC1_L_00315002-02
1 21194U 24123XW  26037.47804398  .00000000  00000+0  00000-0 0  9999
2 21194  75.0000  12.0000 0000000   0.0000 102.0000 14.60983372    11
CTC1_L_00315002-03
1 21195U 23510WH  26037.47804398  .00000000  00000+0  00000-0 0  9999
2 21195  75.0000  12.0000 0000000   0.0000 192.0000 14.60983372    11
CTC1_L_00315002-04
1 21196U 25301PA  26037.47804398  .00000000  00000+0  00000-0 0  9990
2 21196  75.0000  12.0000 0000000   0.0000 282.0000 14.60983372    12
CTC1_L_00315003-01
1 21197U 22265ZT  26037.47804398  .00000000  00000+0  00000-0 0  9997
2 21197  75.0000  24.0000 0000000   0.0000  24.0000 14.60983372    10
CTC1_L_00315003-02
1 21198U 26073RA  26037.47804398  .00000000  00000+0  00000-0 0  9999
2 21198  75.0000  24.0000 0000000   0.0000 114.0000 14.60983372    11
CTC1_L_00315003-03
1 21199U 25987XE  26037.47804398  .00000000  00000+0  00000-0 0  9993
2 21199  75.0000  24.0000 0000000   0.0000 204.0000 14.60983372    12
CTC1_L_00315003-04
1 21200U 26121MS  26037.47804398  .00000000  00000+0  00000-0 0  9997
2 21200  75.0000  24.0000 0000000   0.0000 294.0000 14.60983372    14
CTC1_L_00315004-01
1 21201U 24165F   26037.47804398  .00000000  00000+0  00000-0 0  9994
2 21201  75.0000  36.0000 0000000   0.0000  36.0000 14.60983372    12
CTC1_L_00315004-02
1 21202U 23841DJ  26037.47804398  .00000000  00000+0  00000-0 0  9995
2 21202  75.0000  36.0000 0000000   0.0000 126.0000 14.60983372    13
CTC1_L_00315004-03
1 21203U 26348NJ  26037.47804398  .00000000  00000+0  00000-0 0  9991
2 21203  75.0000  36.0000 0000000   0.0000 216.0000 14.60983372    14
CTC1_L_00315004-04
1 21204U 25114FK  26037.47804398  .00000000  00000+0  00000-0 0  9992
2 21204  75.0000  36.0000 0000000   0.0000 306.0000 14.60983372    15
CTC1_L_00315005-01
1 21205U 23972ZB  26037.47804398  .00000000  00000+0  00000-0 0  9993
2 21205  75.0000  48.0000 0000000   0.0000  48.0000 14.60983372    12
CTC1_L_00315005-02
1 21206U 25122SE  26037.47804398  .00000000  00000+0  00000-0 0  9993
2 21206  75.0000  48.0000 0000000   0.0000 138.0000 14.60983372    13
CTC1_L_00315005-03
1 21207U 26662KZ  26037.47804398  .00000000  00000+0  00000-0 0  9994
2 21207  75.0000  48.0000 0000000   0.0000 228.0000 14.60983372    14
CTC1_L_00315005-04
1 21208U 24834EI  26037.47804398  .00000000  00000+0  00000-0 0  9994
2 21208  75.0000  48.0000 0000000   0.0000 318.0000 14.60983372    15
CTC1_L_00315006-01
1 21209U 22844WR  26037.47804398  .00000000  00000+0  00000-0 0  9994
2 21209  75.0000  60.0000 0000000   0.0000  60.0000 14.60983372    14
CTC1_L_00315006-02
1 21210U 24417YE  26037.47804398  .00000000  00000+0  00000-0 0  9994
2 21210  75.0000  60.0000 0000000   0.0000 150.0000 14.60983372    16
CTC1_L_00315006-03
1 21211U 23858FQ  26037.47804398  .00000000  00000+0  00000-0 0  9993
2 21211  75.0000  60.0000 0000000   0.0000 240.0000 14.60983372    17
CTC1_L_00315006-04
1 21212U 23933NC  26037.47804398  .00000000  00000+0  00000-0 0  9998
2 21212  75.0000  60.0000 0000000   0.0000 330.0000 14.60983372    18
CTC1_L_00315007-01
1 21213U 24827NM  26037.47804398  .00000000  00000+0  00000-0 0  9992
2 21213  75.0000  72.0000 0000000   0.0000  72.0000 14.60983372    15
CTC1_L_00315007-02
1 21214U 26043SI  26037.47804398  .00000000  00000+0  00000-0 0  9995
2 21214  75.0000  72.0000 0000000   0.0000 162.0000 14.60983372    16
CTC1_L_00315007-03
1 21215U 23792PX  26037.47804398  .00000000  00000+0  00000-0 0  9994
2 21215  75.0000  72.0000 0000000   0.0000 252.0000 14.60983372    17
CTC1_L_00315007-04
1 21216U 25540TL  26037.47804398  .00000000  00000+0  00000-0 0  9998
2 21216  75.0000  72.0000 0000000   0.0000 342.0000 14.60983372    18
CTC1_L_00315008-01
1 21217U 24434Q   26037.47804398  .00000000  00000+0  00000-0 0  9990
2 21217  75.0000  84.0000 0000000   0.0000  84.0000 14.60983372    15
CTC1_L_00315008-02
1 21218U 26484IE  26037.47804398  .00000000  00000+0  00000-0 0  9998
2 21218  75.0000  84.0000 0000000   0.0000 174.0000 14.60983372    16
CTC1_L_00315008-03
1 21219U 23607KN  26037.47804398  .00000000  00000+0  00000-0 0  9993
2 21219  75.0000  84.0000 0000000   0.0000 264.0000 14.60983372    17
CTC1_L_00315008-04
1 21220U 24275HT  26037.47804398  .00000000  00000+0  00000-0 0  9997
2 21220  75.0000  84.0000 0000000   0.0000 354.0000 14.60983372    19
CTC1_L_00315009-01
1 21221U 25311HR  26037.47804398  .00000000  00000+0  00000-0 0  9990
2 21221  75.0000  96.0000 0000000   0.0000  96.0000 14.60983372    16
CTC1_L_00315009-02
1 21222U 22946TM  26037.47804398  .00000000  00000+0  00000-0 0  9992
2 21222  75.0000  96.0000 0000000   0.0000 186.0000 14.60983372    17
CTC1_L_00315009-03
1 21223U 22431UY  26037.47804398  .00000000  00000+0  00000-0 0  9992
2 21223  75.0000  96.0000 0000000   0.0000 276.0000 14.60983372    18
CTC1_L_00315009-04
1 21224U 22896FC  26037.47804398  .00000000  00000+0  00000-0 0  9998
2 21224  75.0000  96.0000 0000000   0.0000   6.0000 14.60983372    10
CTC1_L_00315010-01
1 21225U 26430WD  26037.47804398  .00000000  00000+0  00000-0 0  9997
2 21225  75.0000 108.0000 0000000   0.0000 108.0000 14.60983372    18
CTC1_L_00315010-02
1 21226U 25207RH  26037.47804398  .00000000  00000+0  00000-0 0  9999
2 21226  75.0000 108.0000 0000000   0.0000 198.0000 14.60983372    18
CTC1_L_00315010-03
1 21227U 23585CA  26037.47804398  .00000000  00000+0  00000-0 0  9997
2 21227  75.0000 108.0000 0000000   0.0000 288.0000 14.60983372    19
CTC1_L_00315010-04
1 21228U 26053OB  26037.47804398  .00000000  00000+0  00000-0 0  9991
2 21228  75.0000 108.0000 0000000   0.0000  18.0000 14.60983372    11
CTC1_L_00315011-01
1 21229U 23918TT  26037.47804398  .00000000  00000+0  00000-0 0  9999
2 21229  75.0000 120.0000 0000000   0.0000 120.0000 14.60983372    10
CTC1_L_00315011-02
1 21230U 23298GY  26037.47804398  .00000000  00000+0  00000-0 0  9992
2 21230  75.0000 120.0000 0000000   0.0000 210.0000 14.60983372    12
CTC1_L_00315011-03
1 21231U 22079DF  26037.47804398  .00000000  00000+0  00000-0 0  9999
2 21231  75.0000 120.0000 0000000   0.0000 300.0000 14.60983372    13
CTC1_L_00315011-04
1 21232U 22245PG  26037.47804398  .00000000  00000+0  00000-0 0  9995
2 21232  75.0000 120.0000 0000000   0.0000  30.0000 14.60983372    14
CTC1_L_00315012-01
1 21233U 25566YP  26037.47804398  .00000000  00000+0  00000-0 0  9995
2 21233  75.0000 132.0000 0000000   0.0000 132.0000 14.60983372    11
CTC1_L_00315012-02
1 21234U 26079RP  26037.47804398  .00000000  00000+0  00000-0 0  9996
2 21234  75.0000 132.0000 0000000   0.0000 222.0000 14.60983372    12
CTC1_L_00315012-03
1 21235U 24714SE  26037.47804398  .00000000  00000+0  00000-0 0  9991
2 21235  75.0000 132.0000 0000000   0.0000 312.0000 14.60983372    13
CTC1_L_00315012-04
1 21236U 23283XX  26037.47804398  .00000000  00000+0  00000-0 0  9992
2 21236  75.0000 132.0000 0000000   0.0000  42.0000 14.60983372    14
CTC1_L_00315013-01
1 21237U 26057BJ  26037.47804398  .00000000  00000+0  00000-0 0  9995
2 21237  75.0000 144.0000 0000000   0.0000 144.0000 14.60983372    11
CTC1_L_00315013-02
1 21238U 25799MW  26037.47804398  .00000000  00000+0  00000-0 0  9998
2 21238  75.0000 144.0000 0000000   0.0000 234.0000 14.60983372    12
CTC1_L_00315013-03
1 21239U 25381J   26037.47804398  .00000000  00000+0  00000-0 0  9996
2 21239  75.0000 144.0000 0000000   0.0000 324.0000 14.60983372    13
CTC1_L_00315013-04
1 21240U 23174FF  26037.47804398  .00000000  00000+0  00000-0 0  9996
2 21240  75.0000 144.0000 0000000   0.0000  54.0000 14.60983372    15
CTC1_L_00315014-01
1 21241U 22730CN  26037.47804398  .00000000  00000+0  00000-0 0  9994
2 21241  75.0000 156.0000 0000000   0.0000 156.0000 14.60983372    12
CTC1_L_00315014-02
1 21242U 23674HE  26037.47804398  .00000000  00000+0  00000-0 0  9993
2 21242  75.0000 156.0000 0000000   0.0000 246.0000 14.60983372    13
CTC1_L_00315014-03
1 21243U 23827HM  26037.47804398  .00000000  00000+0  00000-0 0  9994
2 21243  75.0000 156.0000 0000000   0.0000 336.0000 14.60983372    14
CTC1_L_00315014-04
1 21244U 26952VL  26037.47804398  .00000000  00000+0  00000-0 0  9997
2 21244  75.0000 156.0000 0000000   0.0000  66.0000 14.60983372    15
CTC1_L_00315015-01
1 21245U 25978LY  26037.47804398  .00000000  00000+0  00000-0 0  9995
2 21245  75.0000 168.0000 0000000   0.0000 168.0000 14.60983372    12
CTC1_L_00315015-02
1 21246U 24445ZP  26037.47804398  .00000000  00000+0  00000-0 0  9994
2 21246  75.0000 168.0000 0000000   0.0000 258.0000 14.60983372    13
CTC1_L_00315015-03
1 21247U 23704YE  26037.47804398  .00000000  00000+0  00000-0 0  9992
2 21247  75.0000 168.0000 0000000   0.0000 348.0000 14.60983372    14
CTC1_L_00315015-04
1 21248U 23731AR  26037.47804398  .00000000  00000+0  00000-0 0  9993
2 21248  75.0000 168.0000 0000000   0.0000  78.0000 14.60983372    15
CTC1_L_00315016-01
1 21249U 23887ZU  26037.47804398  .00000000  00000+0  00000-0 0  9996
2 21249  75.0000 180.0000 0000000   0.0000 180.0000 14.60983372    14
CTC1_L_00315016-02
1 21250U 25982FZ  26037.47804398  .00000000  00000+0  00000-0 0  9996
2 21250  75.0000 180.0000 0000000   0.0000 270.0000 14.60983372    16
